start=new Date('2022-09-26T00:00:00.000Z').valueOf();
sats=[{"OBJECT_TYPE":"PAYLOAD","MEAN_ANOMALY":"322.5969","OBJECT_NAME":"STARLINK-3860","REV_AT_EPOCH":"2321","GP_ID":"213447288","TLE_LINE2":"2 52477  53.2146 311.3278 0002093  37.5169 322.5969 15.08833351 23219","MEAN_MOTION_DDOT":"0.0000000000000","SEMIMAJOR_AXIS":"6917.901","TLE_LINE1":"1 52477U 22049AC  22268.38503560 -.00000156  00000-0  83034-5 0  9998","BSTAR":"0.00000830340000","APOAPSIS":"541.214","COUNTRY_CODE":"US","DECAY_DATE":null,"RA_OF_ASC_NODE":"311.3278","CLASSIFICATION_TYPE":"U","MEAN_ELEMENT_THEORY":"SGP4","ELEMENT_SET_NO":"999","EPOCH":"2022-09-25T09:14:27.075840","ECCENTRICITY":"0.00020930","MEAN_MOTION":"15.08833351","FILE":"3583351","NORAD_CAT_ID":"52477","ARG_OF_PERICENTER":"37.5169","LAUNCH_DATE":"2022-05-06","OBJECT_ID":"2022-049AC","EPHEMERIS_TYPE":"0","REF_FRAME":"TEME","PERIAPSIS":"538.318","INCLINATION":"53.2146","MEAN_MOTION_DOT":"-0.00000156","TIME_SYSTEM":"UTC","RCS_SIZE":"LARGE","CENTER_NAME":"EARTH","SITE":"AFETR","PERIOD":"95.438"},{"REV_AT_EPOCH":"2310","OBJECT_NAME":"STARLINK-3825","OBJECT_TYPE":"PAYLOAD","MEAN_ANOMALY":"304.2314","GP_ID":"213509265","TLE_LINE2":"2 52478  53.2192 320.5776 0001800  55.8849 304.2314 15.08839521 23103","MEAN_MOTION_DDOT":"0.0000000000000","RA_OF_ASC_NODE":"320.5776","CLASSIFICATION_TYPE":"U","TLE_LINE1":"1 52478U 22049AD  22268.55339190 -.00000875  00000-0 -36887-4 0  9996","BSTAR":"-0.00003688700000","SEMIMAJOR_AXIS":"6917.882","APOAPSIS":"540.992","DECAY_DATE":null,"COUNTRY_CODE":"US","ELEMENT_SET_NO":"999","EPOCH":"2022-09-25T13:16:53.060160","ECCENTRICITY":"0.00018000","MEAN_MOTION":"15.08839521","MEAN_ELEMENT_THEORY":"SGP4","ARG_OF_PERICENTER":"55.8849","OBJECT_ID":"2022-049AD","LAUNCH_DATE":"2022-05-06","FILE":"3583828","NORAD_CAT_ID":"52478","REF_FRAME":"TEME","PERIAPSIS":"538.502","EPHEMERIS_TYPE":"0","RCS_SIZE":"LARGE","MEAN_MOTION_DOT":"-0.00000875","INCLINATION":"53.2192","TIME_SYSTEM":"UTC","PERIOD":"95.438","CENTER_NAME":"EARTH","SITE":"AFETR"},{"SITE":"AFETR","CENTER_NAME":"EARTH","PERIOD":"95.438","TIME_SYSTEM":"UTC","INCLINATION":"53.2160","MEAN_MOTION_DOT":"-0.00001164","RCS_SIZE":"LARGE","EPHEMERIS_TYPE":"0","PERIAPSIS":"538.379","REF_FRAME":"TEME","NORAD_CAT_ID":"52479","FILE":"3583351","ARG_OF_PERICENTER":"45.2001","LAUNCH_DATE":"2022-05-06","OBJECT_ID":"2022-049AE","MEAN_ELEMENT_THEORY":"SGP4","EPOCH":"2022-09-25T12:04:02.307936","ECCENTRICITY":"0.00020080","MEAN_MOTION":"15.08832458","ELEMENT_SET_NO":"999","COUNTRY_CODE":"US","DECAY_DATE":null,"TLE_LINE1":"1 52479U 22049AE  22268.50280449 -.00001164  00000-0 -55051-4 0  9990","SEMIMAJOR_AXIS":"6917.903","BSTAR":"-0.00005505100000","APOAPSIS":"541.158","CLASSIFICATION_TYPE":"U","RA_OF_ASC_NODE":"310.8023","MEAN_MOTION_DDOT":"0.0000000000000","GP_ID":"213447451","TLE_LINE2":"2 52479  53.2160 310.8023 0002008  45.2001 314.9154 15.08832458 23236","OBJECT_TYPE":"PAYLOAD","MEAN_ANOMALY":"314.9154","REV_AT_EPOCH":"2323","OBJECT_NAME":"STARLINK-3878"},{"TIME_SYSTEM":"UTC","MEAN_MOTION_DOT":"-0.00001609","INCLINATION":"53.2205","RCS_SIZE":"LARGE","SITE":"AFETR","CENTER_NAME":"EARTH","PERIOD":"95.439","FILE":"3583828","NORAD_CAT_ID":"52480","LAUNCH_DATE":"2022-05-06","OBJECT_ID":"2022-049AF","ARG_OF_PERICENTER":"45.3902","EPHEMERIS_TYPE":"0","PERIAPSIS":"538.819","REF_FRAME":"TEME","COUNTRY_CODE":"US","DECAY_DATE":null,"APOAPSIS":"540.764","SEMIMAJOR_AXIS":"6917.927","TLE_LINE1":"1 52480U 22049AF  22268.88092868 -.00001609  00000-0 -83055-4 0  9998","BSTAR":"-0.00008305500000","CLASSIFICATION_TYPE":"U","RA_OF_ASC_NODE":"319.1005","MEAN_ELEMENT_THEORY":"SGP4","MEAN_MOTION":"15.08824876","EPOCH":"2022-09-25T21:08:32.237952","ECCENTRICITY":"0.00014060","ELEMENT_SET_NO":"999","MEAN_ANOMALY":"314.7205","OBJECT_TYPE":"PAYLOAD","OBJECT_NAME":"STARLINK-3839","REV_AT_EPOCH":"2191","MEAN_MOTION_DDOT":"0.0000000000000","TLE_LINE2":"2 52480  53.2205 319.1005 0001406  45.3902 314.7205 15.08824876 21915","GP_ID":"213509010"},{"RCS_SIZE":"LARGE","TIME_SYSTEM":"UTC","MEAN_MOTION_DOT":"0.00000517","INCLINATION":"53.2195","PERIOD":"95.437","SITE":"AFETR","CENTER_NAME":"EARTH","OBJECT_ID":"2022-049AG","LAUNCH_DATE":"2022-05-06","ARG_OF_PERICENTER":"62.8964","FILE":"3583828","NORAD_CAT_ID":"52481","REF_FRAME":"TEME","PERIAPSIS":"538.736","EPHEMERIS_TYPE":"0","CLASSIFICATION_TYPE":"U","RA_OF_ASC_NODE":"320.5625","DECAY_DATE":null,"COUNTRY_CODE":"US","APOAPSIS":"540.701","BSTAR":"0.00005057900000","TLE_LINE1":"1 52481U 22049AG  22268.55706344  .00000517  00000-0  50579-4 0  9994","SEMIMAJOR_AXIS":"6917.853","MEAN_MOTION":"15.08848876","ECCENTRICITY":"0.00014200","EPOCH":"2022-09-25T13:22:10.281216","ELEMENT_SET_NO":"999","MEAN_ELEMENT_THEORY":"SGP4","REV_AT_EPOCH":"2310","OBJECT_NAME":"STARLINK-3842","MEAN_ANOMALY":"297.2173","OBJECT_TYPE":"PAYLOAD","MEAN_MOTION_DDOT":"0.0000000000000","GP_ID":"213509251","TLE_LINE2":"2 52481  53.2195 320.5625 0001420  62.8964 297.2173 15.08848876 23104"},{"EPHEMERIS_TYPE":"0","PERIAPSIS":"538.511","REF_FRAME":"TEME","NORAD_CAT_ID":"52482","FILE":"3583828","OBJECT_ID":"2022-049AH","LAUNCH_DATE":"2022-05-06","ARG_OF_PERICENTER":"48.7517","CENTER_NAME":"EARTH","SITE":"AFETR","PERIOD":"95.438","INCLINATION":"53.2173","MEAN_MOTION_DOT":"-0.00000565","TIME_SYSTEM":"UTC","RCS_SIZE":"LARGE","TLE_LINE2":"2 52482  53.2173 309.3425 0001818  48.7517 311.3632 15.08832342 22043","GP_ID":"213508849","MEAN_MOTION_DDOT":"0.0000000000000","MEAN_ANOMALY":"311.3632","OBJECT_TYPE":"PAYLOAD","REV_AT_EPOCH":"2204","OBJECT_NAME":"STARLINK-3813","MEAN_ELEMENT_THEORY":"SGP4","ELEMENT_SET_NO":"999","MEAN_MOTION":"15.08832342","ECCENTRICITY":"0.00018180","EPOCH":"2022-09-25T19:50:21.510240","APOAPSIS":"541.026","TLE_LINE1":"1 52482U 22049AH  22268.82663785 -.00000565  00000-0 -17427-4 0  9996","SEMIMAJOR_AXIS":"6917.904","BSTAR":"-0.00001742700000","COUNTRY_CODE":"US","DECAY_DATE":null,"RA_OF_ASC_NODE":"309.3425","CLASSIFICATION_TYPE":"U"},{"MEAN_ELEMENT_THEORY":"SGP4","EPOCH":"2022-09-25T12:09:19.775232","ECCENTRICITY":"0.00018760","MEAN_MOTION":"15.08837389","ELEMENT_SET_NO":"999","COUNTRY_CODE":"US","DECAY_DATE":null,"TLE_LINE1":"1 52483U 22049AJ  22268.50647888 -.00000297  00000-0 -57179-6 0  9990","SEMIMAJOR_AXIS":"6917.888","BSTAR":"-0.00000057179000","APOAPSIS":"541.051","CLASSIFICATION_TYPE":"U","RA_OF_ASC_NODE":"310.7865","MEAN_MOTION_DDOT":"0.0000000000000","GP_ID":"213422319","TLE_LINE2":"2 52483  53.2165 310.7865 0001876  51.1411 308.9748 15.08837389 22152","OBJECT_TYPE":"PAYLOAD","MEAN_ANOMALY":"308.9748","OBJECT_NAME":"STARLINK-3875","REV_AT_EPOCH":"2215","SITE":"AFETR","CENTER_NAME":"EARTH","PERIOD":"95.438","TIME_SYSTEM":"UTC","INCLINATION":"53.2165","MEAN_MOTION_DOT":"-0.00000297","RCS_SIZE":"LARGE","EPHEMERIS_TYPE":"0","REF_FRAME":"TEME","PERIAPSIS":"538.456","FILE":"3583331","NORAD_CAT_ID":"52483","ARG_OF_PERICENTER":"51.1411","LAUNCH_DATE":"2022-05-06","OBJECT_ID":"2022-049AJ"},{"MEAN_ELEMENT_THEORY":"SGP4","ELEMENT_SET_NO":"999","MEAN_MOTION":"15.08847359","ECCENTRICITY":"0.00018590","EPOCH":"2022-09-25T21:03:12.177792","APOAPSIS":"541.009","TLE_LINE1":"1 52484U 22049AK  22268.87722428  .00000849  00000-0  71410-4 0  9998","BSTAR":"0.00007141000000","SEMIMAJOR_AXIS":"6917.858","DECAY_DATE":null,"COUNTRY_CODE":"US","RA_OF_ASC_NODE":"319.1274","CLASSIFICATION_TYPE":"U","GP_ID":"213509426","TLE_LINE2":"2 52484  53.2181 319.1274 0001859  51.0410 309.0748 15.08847359 21910","MEAN_MOTION_DDOT":"0.0000000000000","MEAN_ANOMALY":"309.0748","OBJECT_TYPE":"PAYLOAD","REV_AT_EPOCH":"2191","OBJECT_NAME":"STARLINK-3887","CENTER_NAME":"EARTH","SITE":"AFETR","PERIOD":"95.437","INCLINATION":"53.2181","MEAN_MOTION_DOT":"0.00000849","TIME_SYSTEM":"UTC","RCS_SIZE":"LARGE","EPHEMERIS_TYPE":"0","REF_FRAME":"TEME","PERIAPSIS":"538.437","NORAD_CAT_ID":"52484","FILE":"3583828","LAUNCH_DATE":"2022-05-06","OBJECT_ID":"2022-049AK","ARG_OF_PERICENTER":"51.0410"},{"PERIOD":"95.438","CENTER_NAME":"EARTH","SITE":"AFETR","RCS_SIZE":"LARGE","MEAN_MOTION_DOT":"0.00003777","INCLINATION":"53.2181","TIME_SYSTEM":"UTC","REF_FRAME":"TEME","PERIAPSIS":"538.323","EPHEMERIS_TYPE":"0","ARG_OF_PERICENTER":"49.1450","OBJECT_ID":"2022-049AL","LAUNCH_DATE":"2022-05-06","NORAD_CAT_ID":"52485","FILE":"3583828","ELEMENT_SET_NO":"999","ECCENTRICITY":"0.00020960","EPOCH":"2022-09-25T15:09:29.391552","MEAN_MOTION":"15.08831124","MEAN_ELEMENT_THEORY":"SGP4","RA_OF_ASC_NODE":"310.2238","CLASSIFICATION_TYPE":"U","TLE_LINE1":"1 52485U 22049AL  22268.63159018  .00003777  00000-0  25532-3 0  9998","SEMIMAJOR_AXIS":"6917.908","BSTAR":"0.00025532000000","APOAPSIS":"541.223","DECAY_DATE":null,"COUNTRY_CODE":"US","GP_ID":"213508835","TLE_LINE2":"2 52485  53.2181 310.2238 0002096  49.1450 310.9723 15.08831124 22018","MEAN_MOTION_DDOT":"0.0000000000000","REV_AT_EPOCH":"2201","OBJECT_NAME":"STARLINK-3913","OBJECT_TYPE":"PAYLOAD","MEAN_ANOMALY":"310.9723"},{"INCLINATION":"53.2193","MEAN_MOTION_DOT":"0.00000695","TIME_SYSTEM":"UTC","RCS_SIZE":"MEDIUM","CENTER_NAME":"EARTH","SITE":"AFETR","PERIOD":"95.438","FILE":"3583828","NORAD_CAT_ID":"52486","LAUNCH_DATE":"2022-05-06","OBJECT_ID":"2022-049AM","ARG_OF_PERICENTER":"56.0714","EPHEMERIS_TYPE":"0","PERIAPSIS":"538.550","REF_FRAME":"TEME","APOAPSIS":"540.942","TLE_LINE1":"1 52486U 22049AM  22268.86987324  .00000695  00000-0  61744-4 0  9995","BSTAR":"0.00006174400000","SEMIMAJOR_AXIS":"6917.881","DECAY_DATE":null,"COUNTRY_CODE":"US","RA_OF_ASC_NODE":"319.1534","CLASSIFICATION_TYPE":"U","MEAN_ELEMENT_THEORY":"SGP4","ELEMENT_SET_NO":"999","MEAN_MOTION":"15.08839744","EPOCH":"2022-09-25T20:52:37.047936","ECCENTRICITY":"0.00017290","MEAN_ANOMALY":"304.0442","OBJECT_TYPE":"PAYLOAD","OBJECT_NAME":"STARLINK-3918","REV_AT_EPOCH":"2191","TLE_LINE2":"2 52486  53.2193 319.1534 0001729  56.0714 304.0442 15.08839744 21917","GP_ID":"213509266","MEAN_MOTION_DDOT":"0.0000000000000"}];
